{
  "type": "FeatureCollection",
  "features": [
    {
      "type": "Feature",
      "properties": {
        "norad_id": 34036,
        "name": "COSMOS 2251 DEB",
        "group": "cosmos-2251-debris",
        "lat": 66.6544274407581,
        "lon": -148.39320015212436,
        "alt_km": 586.7589080251983,
        "timestamp": "2025-12-02T10:50:47.669183+00:00",
        "meta_object_name": "COSMOS 2251 DEB",
        "meta_object_id": "1993-036HX",
        "meta_epoch": "2025-11-30T23:09:20.036736",
        "meta_mean_motion": 14.93557713,
        "meta_eccentricity": 0.00153307,
        "meta_inclination": 74.0215,
        "meta_ra_of_asc_node": 173.0047,
        "meta_arg_of_pericenter": 207.7863,
        "meta_mean_anomaly": 152.2504,
        "meta_ephemeris_type": 0,
        "meta_classification_type": "U",
        "meta_norad_cat_id": 34036,
        "meta_element_set_no": 999,
        "meta_rev_at_epoch": 88394,
        "meta_bstar": 0.0033859171,
        "meta_mean_motion_dot": 0.00035932,
        "meta_mean_motion_ddot": 0,
        "tle_line1": "1 34036U 93036HX  25334.96481524  .00035932  00000+0  33859-2 0  9994",
        "tle_line2": "2 34036  74.0215 173.0047 0015330 207.7863 152.2504 14.93557713883940"
      },
      "geometry": {
        "type": "Point",
        "coordinates": [
          -148.39320015212436,
          66.6544274407581
        ]
      }
    },
    {
      "type": "Feature",
      "properties": {
        "norad_id": 34037,
        "name": "COSMOS 2251 DEB",
        "group": "cosmos-2251-debris",
        "lat": -1.4784842303711236,
        "lon": -110.30651748403285,
        "alt_km": 759.6487996807446,
        "timestamp": "2025-12-02T10:50:47.669194+00:00",
        "meta_object_name": "COSMOS 2251 DEB",
        "meta_object_id": "1993-036HY",
        "meta_epoch": "2025-12-01T17:16:20.794368",
        "meta_mean_motion": 14.3461163,
        "meta_eccentricity": 0.0052541,
        "meta_inclination": 74.0515,
        "meta_ra_of_asc_node": 70.6101,
        "meta_arg_of_pericenter": 123.9302,
        "meta_mean_anomaly": 236.6862,
        "meta_ephemeris_type": 0,
        "meta_classification_type": "U",
        "meta_norad_cat_id": 34037,
        "meta_element_set_no": 999,
        "meta_rev_at_epoch": 87559,
        "meta_bstar": 0.000596,
        "meta_mean_motion_dot": 1.685e-05,
        "meta_mean_motion_ddot": 0,
        "tle_line1": "1 34037U 93036HY  25335.71968512  .00001685  00000+0  59600-3 0  9997",
        "tle_line2": "2 34037  74.0515  70.6101 0052541 123.9302 236.6862 14.34611630875599"
      },
      "geometry": {
        "type": "Point",
        "coordinates": [
          -110.30651748403285,
          -1.4784842303711236
        ]
      }
    },
    {
      "type": "Feature",
      "properties": {
        "norad_id": 34040,
        "name": "COSMOS 2251 DEB",
        "group": "cosmos-2251-debris",
        "lat": 0.6388833274153438,
        "lon": 83.04546608767946,
        "alt_km": 804.2006692504838,
        "timestamp": "2025-12-02T10:50:47.669204+00:00",
        "meta_object_name": "COSMOS 2251 DEB",
        "meta_object_id": "1993-036JB",
        "meta_epoch": "2025-12-01T15:32:36.382848",
        "meta_mean_motion": 13.68357292,
        "meta_eccentricity": 0.03427998,
        "meta_inclination": 73.9552,
        "meta_ra_of_asc_node": 84.1901,
        "meta_arg_of_pericenter": 39.8659,
        "meta_mean_anomaly": 322.71,
        "meta_ephemeris_type": 0,
        "meta_classification_type": "U",
        "meta_norad_cat_id": 34040,
        "meta_element_set_no": 999,
        "meta_rev_at_epoch": 83448,
        "meta_bstar": 0.0003473683,
        "meta_mean_motion_dot": 4.26e-06,
        "meta_mean_motion_ddot": 0,
        "tle_line1": "1 34040U 93036JB  25335.64764332  .00000426  00000+0  34737-3 0  9993",
        "tle_line2": "2 34040  73.9552  84.1901 0342799  39.8659 322.7100 13.68357292834489"
      },
      "geometry": {
        "type": "Point",
        "coordinates": [
          83.04546608767946,
          0.6388833274153438
        ]
      }
    },
    {
      "type": "Feature",
      "properties": {
        "norad_id": 34045,
        "name": "COSMOS 2251 DEB",
        "group": "cosmos-2251-debris",
        "lat": -62.185021838732794,
        "lon": -177.49012925007602,
        "alt_km": 802.830937235035,
        "timestamp": "2025-12-02T10:50:47.669214+00:00",
        "meta_object_name": "COSMOS 2251 DEB",
        "meta_object_id": "1993-036JG",
        "meta_epoch": "2025-12-02T03:22:02.458272",
        "meta_mean_motion": 14.34058969,
        "meta_eccentricity": 0.0025314,
        "meta_inclination": 74.0386,
        "meta_ra_of_asc_node": 330.2269,
        "meta_arg_of_pericenter": 56.9772,
        "meta_mean_anomaly": 21.7467,
        "meta_ephemeris_type": 0,
        "meta_classification_type": "U",
        "meta_norad_cat_id": 34045,
        "meta_element_set_no": 999,
        "meta_rev_at_epoch": 87881,
        "meta_bstar": 0.00011218,
        "meta_mean_motion_dot": 2.89e-06,
        "meta_mean_motion_ddot": 0,
        "tle_line1": "1 34045U 93036JG  25336.14030623  .00000289  00000+0  11218-3 0  9999",
        "tle_line2": "2 34045  74.0386 330.2269 0025314  56.9772  21.7467 14.34058969878810"
      },
      "geometry": {
        "type": "Point",
        "coordinates": [
          -177.49012925007602,
          -62.185021838732794
        ]
      }
    },
    {
      "type": "Feature",
      "properties": {
        "norad_id": 34046,
        "name": "COSMOS 2251 DEB",
        "group": "cosmos-2251-debris",
        "lat": 38.63831395186219,
        "lon": -163.54357834750033,
        "alt_km": 685.3306642803927,
        "timestamp": "2025-12-02T10:50:47.669224+00:00",
        "meta_object_name": "COSMOS 2251 DEB",
        "meta_object_id": "1993-036JH",
        "meta_epoch": "2025-12-02T03:40:09.994080",
        "meta_mean_motion": 14.46329608,
        "meta_eccentricity": 0.007495,
        "meta_inclination": 74.0406,
        "meta_ra_of_asc_node": 30.2382,
        "meta_arg_of_pericenter": 116.7965,
        "meta_mean_anomaly": 265.8384,
        "meta_ephemeris_type": 0,
        "meta_classification_type": "U",
        "meta_norad_cat_id": 34046,
        "meta_element_set_no": 999,
        "meta_rev_at_epoch": 87673,
        "meta_bstar": 0.0013366,
        "meta_mean_motion_dot": 4.94e-05,
        "meta_mean_motion_ddot": 0,
        "tle_line1": "1 34046U 93036JH  25336.15289345  .00004940  00000+0  13366-2 0  9991",
        "tle_line2": "2 34046  74.0406  30.2382 0074950 116.7965 265.8384 14.46329608876738"
      },
      "geometry": {
        "type": "Point",
        "coordinates": [
          -163.54357834750033,
          38.63831395186219
        ]
      }
    },
    {
      "type": "Feature",
      "properties": {
        "norad_id": 34050,
        "name": "COSMOS 2251 DEB",
        "group": "cosmos-2251-debris",
        "lat": 67.06203788856237,
        "lon": 70.07792093110565,
        "alt_km": 754.109724447635,
        "timestamp": "2025-12-02T10:50:47.669235+00:00",
        "meta_object_name": "COSMOS 2251 DEB",
        "meta_object_id": "1993-036JM",
        "meta_epoch": "2025-12-02T03:46:23.655936",
        "meta_mean_motion": 13.96151986,
        "meta_eccentricity": 0.0214733,
        "meta_inclination": 74.0888,
        "meta_ra_of_asc_node": 28.2046,
        "meta_arg_of_pericenter": 95.234,
        "meta_mean_anomaly": 298.2048,
        "meta_ephemeris_type": 0,
        "meta_classification_type": "U",
        "meta_norad_cat_id": 34050,
        "meta_element_set_no": 999,
        "meta_rev_at_epoch": 85284,
        "meta_bstar": 0.0006422,
        "meta_mean_motion_dot": 1.049e-05,
        "meta_mean_motion_ddot": 0,
        "tle_line1": "1 34050U 93036JM  25336.15721824  .00001049  00000+0  64220-3 0  9992",
        "tle_line2": "2 34050  74.0888  28.2046 0214733  95.2340 298.2048 13.96151986852843"
      },
      "geometry": {
        "type": "Point",
        "coordinates": [
          70.07792093110565,
          67.06203788856237
        ]
      }
    },
    {
      "type": "Feature",
      "properties": {
        "norad_id": 34053,
        "name": "COSMOS 2251 DEB",
        "group": "cosmos-2251-debris",
        "lat": -17.270083331386207,
        "lon": -106.42228804904035,
        "alt_km": 945.685431956952,
        "timestamp": "2025-12-02T10:50:47.669245+00:00",
        "meta_object_name": "COSMOS 2251 DEB",
        "meta_object_id": "1993-036JQ",
        "meta_epoch": "2025-12-02T03:48:48.178080",
        "meta_mean_motion": 13.49132816,
        "meta_eccentricity": 0.0421604,
        "meta_inclination": 73.8444,
        "meta_ra_of_asc_node": 259.22,
        "meta_arg_of_pericenter": 49.5494,
        "meta_mean_anomaly": 314.1581,
        "meta_ephemeris_type": 0,
        "meta_classification_type": "U",
        "meta_norad_cat_id": 34053,
        "meta_element_set_no": 999,
        "meta_rev_at_epoch": 82541,
        "meta_bstar": 0.00089978,
        "meta_mean_motion_dot": 9.58e-06,
        "meta_mean_motion_ddot": 0,
        "tle_line1": "1 34053U 93036JQ  25336.15889095  .00000958  00000+0  89978-3 0  9995",
        "tle_line2": "2 34053  73.8444 259.2200 0421604  49.5494 314.1581 13.49132816825410"
      },
      "geometry": {
        "type": "Point",
        "coordinates": [
          -106.42228804904035,
          -17.270083331386207
        ]
      }
    }
  ]
}